#dP2018  2 19  0  0  0.00000000      96 __u+U ITR00 FIT  IAC
## 1989  86400.00000000   900.00000000 58168 0.0000000000000
+   88   C01C02C03C04C05C06C07C08C09C10C11C12C13C14E01E02E03
+        E04E05E07E08E09E11E12E14E18E19E24E26E30G01G02G03G04
+        G05G06G07G08G09G10G11G12G13G14G15G16G17G19G20G21G22
+        G23G24G25G26G27G28G29G30G31G32J01J02J03R01R02R03R04
+        R05R06R07R08R09R10R11R13R14R15R16R17R18R19R20R21R22
+        R23R24R26  0  0  0  0  0  0  0  0  0  0  0  0  0  0
++         0  0  0  0  0  0  0  0  0  0  0  0  0  0  0  0  0
++         0  0  0  0  0  0  0  0  0  0  0  0  0  0  0  0  0
++         0  0  0  0  0  0  0  0  0  0  0  0  0  0  0  0  0
++         0  0  0  0  0  0  0  0  0  0  0  0  0  0  0  0  0
++         0  0  0  0  0  0  0  0  0  0  0  0  0  0  0  0  0
++         0  0  0  0  0  0  0  0  0  0  0  0  0  0  0  0  0
%c M  cc GPS ccc cccc cccc cccc cccc ccccc ccccc ccccc ccccc
%c cc cc ccc ccc cccc cccc cccc cccc ccccc ccccc ccccc ccccc
%f  0.0000000  0.000000000  0.00000000000  0.000000000000000
%f  0.0000000  0.000000000  0.00000000000  0.000000000000000
%i    0    0    0    0      0      0      0      0         0
%i    0    0    0    0      0      0      0      0         0
/*                                                          
/*   RSA / INFORMATION & ANALYSIS CENTER (IAC) OF MCC       
/*   ULTRA-RAPID DETERMINATION                              
/* PCV:IGS14_1984 OL/AL:FES2004  NONE     YN ORB:CoN CLK:CoN
*  2018 02 19  6 45  0.00000000
PC01 -32282.074294  27138.514977    255.465143    385.740600
PC02   4407.140493  41909.025096  -1140.175622   -237.016243
PC03 -14827.006263  39432.514134   -685.246564    -61.846730
PC04 -39661.314468  14350.317666     71.658580   -105.475002
PC05  21870.910844  35993.444011  -1423.944106   -156.942174
PC06 -19660.872513  37019.937012   2773.122359   -680.851191
PC07  -7740.672594  29602.884048  29297.021687   -316.890329
PC08 -19686.929953  19694.989368 -31651.781429    184.198309
PC09 -10462.521118  37349.184503  16296.988181   -389.400367
PC10   4460.275735  36551.538429  20945.675808    -27.088227
PC11  22004.494403   2325.905814 -16897.761188   -397.405346
PC12   4496.957013  14901.434226 -23105.206454    382.758412
PC13  -2999.553651  23644.574986 -34777.229385   -212.518323
PC14  14169.024805  11106.185732  21358.393199    222.927121
PE01  16300.541023  -4321.549171 -24327.791426   -280.135796
PE02 -16297.419311   4326.116596  24328.040427      5.158229
PE03 -19646.421036  15612.131911 -15706.734360     -0.834896
PE04  11373.307175 -27272.889658  -1793.343013     21.105493
PE05 -16430.823277  -5241.553417 -24058.660724    319.117089
PE07   3611.803486  22975.515937  18315.780403     81.616647
PE08 -11127.425354  27376.017813   1771.250017   6639.005428
PE09  -3695.043878 -22923.956431 -18349.509278   6870.725296
PE11 -11372.975485 -14568.688565  23121.126773   1848.244136
PE12  11427.026973 -16080.752625  22085.782262   3540.212824
PE14 -12610.718309  -8811.368100  17623.629791   6628.602937
PE18  18928.301737  11050.304989 -24089.373411   6416.521481
PE19  19709.786086 -13951.383940  17124.541682     19.560110
PE24 -14140.996048 -25593.815228  -4689.646653   6854.486462
PE26  27153.599104   4820.118272 -10740.456121   6253.518288
PE30  -1510.037894  21259.274399  20525.346560   6065.162166
PG01  21333.287553  13951.940462  -8112.744289    -29.648683
PG02   -193.873951 -16256.698312  21592.312014    196.152344
PG03  12773.541092  19024.177519  13453.505581     12.364411
PG04  -9317.474191  17368.040002  17422.166595     38.690516
PG05  -1711.306593 -25994.822964   4471.057959    -13.959162
PG06  13395.136208 -10142.195681  20607.574277    414.281808
PG07  25418.997496   4893.973790  -6710.144317    234.593652
PG08   5461.735936  14661.716727 -21388.745324    -91.704997
PG09  21334.910620  -3876.079640  15308.629697    502.005758
PG10 -12027.210773  12495.828056 -20039.418001    161.666790
PG11  19199.742384  10857.600129 -15260.456068   -736.482872
PG12 -10298.580445 -21328.809394  12047.170290    349.518878
PG13   4486.960458 -18326.296991 -18815.988675    -95.606225
PG14 -16963.766590  18822.552437   7945.411025    -94.151636
PG15  -7944.182905 -14299.571553 -21088.463479   -356.929356
PG16   -376.240188  25987.838833   4068.896669     31.947833
PG17  21374.242025 -15620.659975   -523.602629   -122.031280
PG19  18892.137738 -17734.376267   6019.987541   -456.086693
PG20 -14577.822037 -18864.329337 -11904.038792    501.263875
PG21 -24961.664299  -1730.882184  -8139.537645   -428.699032
PG22  10824.378040  23246.339909   7130.768069   -296.632948
PG23  14770.029203   7500.307662  21097.909803   -218.906891
PG24 -19447.374993 -14718.682886 -10966.297742    -46.234907
PG25 -15128.220211  -8834.790858  19868.793870   -541.112716
PG26  -5983.123595  21665.582406  14045.395288   -245.263492
PG27  -7512.447922  20056.227078 -15604.984743    367.578589
PG28  13101.847758  -8529.987493 -20854.753796    690.110268
PG29 -19490.369423   -568.609890  18015.660190    494.148028
PG30  22341.274489  -1666.180791 -14379.280735    102.209855
PG31 -12843.869975  10448.398407  20896.339596    140.723636
PG32 -20786.760253  16420.641977  -1218.800993   -531.801715
PJ01 -19557.214542  28932.572974 -18999.090618    -98.095241
PJ02 -25913.654892  20320.490404  30968.008324     -0.082963
PJ03 -33616.057703  25484.888072   6416.650393      0.320791
PR01 -12394.508726  13839.997814 -17487.756496     22.299704
PR02  -6683.551764  24588.529440    369.290436    295.986332
PR03   2846.836866  19222.542408  16536.097743    124.544698
PR04  10782.815150   2167.196980  23027.173571    250.444466
PR05  12183.993655 -15354.844853  16307.869923   -250.650318
PR06   5902.356415 -24803.327852  -1205.351476    127.301241
PR07  -2977.493143 -19020.629868 -16723.248896    -30.476054
PR08 -10565.571289  -2893.383989 -22989.006649     38.338833
PR09  -2095.721255 -15971.806148 -19746.486194     47.462309
PR10 -15190.080891 -19650.131515  -5669.284913     18.623191
PR11 -19182.584565 -11650.482867  12100.076386    -22.164643
PR13   3176.671367  16127.713438  19484.177960     -7.630535
PR14  15098.132652  19703.293243   5893.735891     24.818230
PR15  19213.952379  14123.039268  -8903.976963     -6.604869
PR16  12172.484951  -2783.249029 -22248.381254     85.965457
PR17   8115.458753   8732.824592 -22531.096976    110.405044
PR18  22051.489356    523.192980 -12849.187903    185.381635
PR19  23964.089805  -7581.810317   4368.101990    -45.044170
PR20  10982.009726 -11749.405930  19831.522999   -327.758390
PR21  -8411.321911  -8548.234828  22522.880749     28.528748
PR22 -22787.322288    349.821005  11329.464579    -20.025016
PR23 -22479.996147   9241.861534  -7729.335434    137.143126
PR24 -10009.286968  11969.902394 -20190.025869   -162.649621
PR26  10904.320362 -11991.213067  19705.532042      0.723929
EOF
